[{"OBJECT_NAME":"OBJECT A","OBJECT_ID":"2023-189A","EPOCH":"2026-03-09T22:59:06.381600","MEAN_MOTION":15.32403275,"ECCENTRICITY":0.00094831,"INCLINATION":97.4458,"RA_OF_ASC_NODE":86.5997,"ARG_OF_PERICENTER":249.5377,"MEAN_ANOMALY":110.4847,"EPHEMERIS_TYPE":0,"CLASSIFICATION_TYPE":"U","NORAD_CAT_ID":58502,"ELEMENT_SET_NO":999,"REV_AT_EPOCH":12601,"BSTAR":0.00019874471,"MEAN_MOTION_DOT":6.146e-5,"MEAN_MOTION_DDOT":0},{"OBJECT_NAME":"STARLINK-32195","OBJECT_ID":"2024-144R","EPOCH":"2026-03-09T16:54:10.319040","MEAN_MOTION":15.30191375,"ECCENTRICITY":9.247e-5,"INCLINATION":53.159,"RA_OF_ASC_NODE":216.9022,"ARG_OF_PERICENTER":99.213,"MEAN_ANOMALY":260.8975,"EPHEMERIS_TYPE":0,"CLASSIFICATION_TYPE":"U","NORAD_CAT_ID":60440,"ELEMENT_SET_NO":999,"REV_AT_EPOCH":8931,"BSTAR":-7.527978e-6,"MEAN_MOTION_DOT":-5.82e-6,"MEAN_MOTION_DDOT":0}]
